ONEWEB-0338             
1 49204U 21083U   23323.44521808 -.00000024  00000+0 -90040-4 0  9992
2 49204  87.9177 101.7353 0001057 100.3931 259.7321 13.20772503113936
ONEWEB-0339             
1 49205U 21083V   23323.48580397 -.00000054  00000+0 -18338-3 0  9997
2 49205  87.8986 147.4372 0001468  93.2201 266.9096 13.13470449108702
ONEWEB-0340             
1 49206U 21083W   23323.49268296  .00000065  00000+0  13186-3 0  9996
2 49206  87.9148 162.5888 0001709  87.0528 273.0800 13.18687742107280
ONEWEB-0341             
1 49207U 21083X   23322.81822934 -.00000997  00000+0 -25616-2 0  9993
2 49207  87.9234 162.7215 0001664 111.9609 248.1700 13.18676981105924
ONEWEB-0342             
1 49208U 21083Y   23323.45151890 -.00000103  00000+0 -28411-3 0  9997
2 49208  87.9166 101.7620 0001274  96.8125 263.3153 13.20772693113901
ONEWEB-0343             
1 49209U 21083Z   23323.11751091 -.00000155  00000+0 -42653-3 0  9991
2 49209  87.9218 162.6865 0001442 126.6127 233.5138 13.18685462107301
ONEWEB-0344             
1 49210U 21083AA  23322.91765023 -.00000230  00000+0 -66351-3 0  9995
2 49210  87.8994 147.5568 0001794  88.7266 271.4068 13.13466917107330
ONEWEB-0345             
1 49211U 21083AB  23323.46886411 -.00000257  00000+0 -73895-3 0  9992
2 49211  87.8980 147.4328 0002039 102.5066 257.6291 13.13470697108712
